[{"OBJECT_NAME":"STARLINK-35444","OBJECT_ID":"2025-263AC","EPOCH":"2026-03-09T02:56:02.154624","MEAN_MOTION":15.2761041,"ECCENTRICITY":0.00019307,"INCLINATION":43.004,"RA_OF_ASC_NODE":353.7617,"ARG_OF_PERICENTER":243.9267,"MEAN_ANOMALY":116.1386,"EPHEMERIS_TYPE":0,"CLASSIFICATION_TYPE":"U","NORAD_CAT_ID":66511,"ELEMENT_SET_NO":999,"REV_AT_EPOCH":1881,"BSTAR":0.0013985212,"MEAN_MOTION_DOT":0.00038459,"MEAN_MOTION_DDOT":0},{"OBJECT_NAME":"COSMOS 1975","OBJECT_ID":"1988-093A","EPOCH":"2026-03-09T14:15:08.474112","MEAN_MOTION":15.28069249,"ECCENTRICITY":0.0012117,"INCLINATION":82.5181,"RA_OF_ASC_NODE":117.7814,"ARG_OF_PERICENTER":163.8427,"MEAN_ANOMALY":196.3201,"EPHEMERIS_TYPE":0,"CLASSIFICATION_TYPE":"U","NORAD_CAT_ID":19573,"ELEMENT_SET_NO":999,"REV_AT_EPOCH":1939,"BSTAR":0.0002787,"MEAN_MOTION_DOT":7.676e-5,"MEAN_MOTION_DDOT":0}]
